[{"OBJECT_NAME":"SAUDISAT 1C (SO-50)","OBJECT_ID":"2002-058C","EPOCH":"2026-03-07T04:32:45.881088","MEAN_MOTION":14.82770448,"ECCENTRICITY":0.0075199,"INCLINATION":64.552,"RA_OF_ASC_NODE":84.5051,"ARG_OF_PERICENTER":281.1523,"MEAN_ANOMALY":78.1135,"EPHEMERIS_TYPE":0,"CLASSIFICATION_TYPE":"U","NORAD_CAT_ID":27607,"ELEMENT_SET_NO":999,"REV_AT_EPOCH":24933,"BSTAR":0.00026196,"MEAN_MOTION_DOT":2.074e-5,"MEAN_MOTION_DDOT":0},{"OBJECT_NAME":"SAUDISAT 2","OBJECT_ID":"2004-025F","EPOCH":"2026-03-07T00:33:10.079712","MEAN_MOTION":14.56613337,"ECCENTRICITY":0.0023586,"INCLINATION":98.5497,"RA_OF_ASC_NODE":63.3784,"ARG_OF_PERICENTER":249.726,"MEAN_ANOMALY":110.1401,"EPHEMERIS_TYPE":0,"CLASSIFICATION_TYPE":"U","NORAD_CAT_ID":28371,"ELEMENT_SET_NO":999,"REV_AT_EPOCH":15087,"BSTAR":0.0001073,"MEAN_MOTION_DOT":4.3e-6,"MEAN_MOTION_DDOT":0},{"OBJECT_NAME":"SAUDISAT 3","OBJECT_ID":"2007-012B","EPOCH":"2026-03-06T07:13:33.645504","MEAN_MOTION":14.71350131,"ECCENTRICITY":0.00143359,"INCLINATION":98.1346,"RA_OF_ASC_NODE":15.707,"ARG_OF_PERICENTER":189.6683,"MEAN_ANOMALY":170.425,"EPHEMERIS_TYPE":0,"CLASSIFICATION_TYPE":"U","NORAD_CAT_ID":31118,"ELEMENT_SET_NO":999,"REV_AT_EPOCH":1261,"BSTAR":9.8176571e-5,"MEAN_MOTION_DOT":5.57e-6,"MEAN_MOTION_DDOT":0},{"OBJECT_NAME":"PISAT","OBJECT_ID":"2016-059B","EPOCH":"2026-03-06T23:08:06.603648","MEAN_MOTION":14.68764955,"ECCENTRICITY":0.0029326,"INCLINATION":97.8191,"RA_OF_ASC_NODE":70.8239,"ARG_OF_PERICENTER":169.3306,"MEAN_ANOMALY":190.8529,"EPHEMERIS_TYPE":0,"CLASSIFICATION_TYPE":"U","NORAD_CAT_ID":41784,"ELEMENT_SET_NO":999,"REV_AT_EPOCH":50473,"BSTAR":0.00024003,"MEAN_MOTION_DOT":1.361e-5,"MEAN_MOTION_DDOT":0},{"OBJECT_NAME":"FLYING LAPTOP","OBJECT_ID":"2017-042G","EPOCH":"2026-03-07T04:15:18.012384","MEAN_MOTION":15.00494369,"ECCENTRICITY":0.0018941,"INCLINATION":97.4268,"RA_OF_ASC_NODE":225.9628,"ARG_OF_PERICENTER":103.5602,"MEAN_ANOMALY":256.7734,"EPHEMERIS_TYPE":0,"CLASSIFICATION_TYPE":"U","NORAD_CAT_ID":42831,"ELEMENT_SET_NO":999,"REV_AT_EPOCH":47115,"BSTAR":0.00023799,"MEAN_MOTION_DOT":2.952e-5,"MEAN_MOTION_DDOT":0},{"OBJECT_NAME":"SALSAT","OBJECT_ID":"2020-068K","EPOCH":"2026-03-06T22:08:58.267104","MEAN_MOTION":15.28115498,"ECCENTRICITY":0.0008446,"INCLINATION":97.8857,"RA_OF_ASC_NODE":62.8923,"ARG_OF_PERICENTER":308.5318,"MEAN_ANOMALY":51.5163,"EPHEMERIS_TYPE":0,"CLASSIFICATION_TYPE":"U","NORAD_CAT_ID":46495,"ELEMENT_SET_NO":999,"REV_AT_EPOCH":29973,"BSTAR":0.00041467,"MEAN_MOTION_DOT":0.00011302,"MEAN_MOTION_DDOT":0}]
